CUBESX-HSE 3 (RS42S)    
1 57178U 23091N   26129.14652885  .00009989  00000+0  34350-3 0  9994
2 57178  97.5109 194.2676 0010088 223.4796 136.5650 15.30240667158459
MONITOR-3 (RS58S)       
1 57180U 23091Q   26129.15312495  .00007890  00000+0  29950-3 0  9997
2 57180  97.5102 192.3328 0010741 231.4695 128.5582 15.27064584158331
MONITOR-4 (RS57S)       
1 57182U 23091S   26129.20013580  .00008210  00000+0  31059-3 0  9998
2 57182  97.5096 192.3488 0010694 231.5984 128.4295 15.27162433158344
MONITOR-2 (RS39S)       
1 57184U 23091U   26129.10982083  .00004209  00000+0  20689-3 0  9993
2 57184  97.5096 187.6507 0009827 244.4906 115.5312 15.18550876158022
SVYATOBOR 1 (RS60S)     
1 57187U 23091X   26129.18113000  .00007234  00000+0  28431-3 0  9993
2 57187  97.5108 192.7988 0008610 221.3746 138.6841 15.25955047158361
HORS 1                  
1 57188U 23091Y   26129.16921500  .00007242  00000+0  28386-3 0  9992
2 57188  97.5086 192.5544 0008087 220.8295 139.2338 15.26049011158368
VIZARD-METEO (RS38S)    
1 57189U 23091Z   26129.17390595  .00013068  00000+0  38921-3 0  9997
2 57189  97.5104 197.9132 0007301 197.9855 162.1131 15.34801336158705
SITRO-AIS 6 (CHIRKIN)   
1 57192U 23091AC  26129.15208926  .00004649  00000+0  18778-3 0  9998
2 57192  97.5087 192.0248 0010602 238.4643 121.5560 15.25222549158334
SITRO-AIS 8 (ANOKHIN)   
1 57193U 23091AD  26129.14768875  .00010389  00000+0  34791-3 0  9993
2 57193  97.5073 194.1349 0009720 229.5526 130.4868 15.31094440158474
SITRO-AIS 7 (FARTUSHNIY)
1 57194U 23091AE  26129.14749932  .00005511  00000+0  22396-3 0  9996
2 57194  97.5085 191.8647 0010408 239.6232 120.3977 15.24930806158324
AVION KALUGA 650        
1 57195U 23091AF  26129.19322341  .00004267  00000+0  20154-3 0  9990
2 57195  97.5112 188.9348 0009056 241.3891 118.6434 15.19941010158106
HORS 2                  
1 57196U 23091AG  26129.15405752  .00010260  00000+0  34577-3 0  9999
2 57196  97.5104 195.6793 0007686 211.3756 148.7027 15.30910639158558
A-SEANSAT-PG1           
1 57197U 23091AH  26129.18984203  .00014382  00000+0  41701-3 0  9992
2 57197  97.5094 197.9786 0007100 206.4789 153.6093 15.35625182158724
SITRO-AIS 10 (BURDAEV)  
1 57199U 23091AK  26129.14270576  .00016345  00000+0  45086-3 0  9992
2 57199  97.5094 198.7954 0006675 199.3863 160.7128 15.37159842158760
SITRO-AIS 9 (SHCHUKIN)  
1 57201U 23091AM  26129.15727922  .00015961  00000+0  44675-3 0  9995
2 57201  97.5092 198.5696 0006894 199.9378 160.1597 15.36708006158757
UTMN 2 (RS27S)          
1 57203U 23091AP  26129.18585963  .00010414  00000+0  34883-3 0  9995
2 57203  97.5103 195.8929 0007679 206.5833 153.5015 15.31103271158573
SITRO-AIS 12 (SMIRENNIY)
1 57204U 23091AQ  26129.15518038  .00016221  00000+0  44989-3 0  9992
2 57204  97.5105 199.0106 0006687 193.7193 166.3871 15.36990760158779
SITRO-AIS 11 (SHEFFER)  
1 57208U 23091AU  26129.17891064  .00015721  00000+0  43067-3 0  9991
2 57208  97.5102 199.2579 0006615 193.2138 166.8934 15.37382217158791
H2SAT (HEINRICH HERTZ)  
1 57213U 23093A   26129.13169913  .00000010  00000+0  00000+0 0  9997
2 57213   0.0174 236.9798 0001026 255.4900 142.5968  1.00269896 10524
KUZGTU 1 (RS47S)        
1 57217U 23091AV  26129.16975954  .00009502  00000+0  33982-3 0  9996
2 57217  97.5082 193.2764 0010142 227.4879 132.5505 15.28976382158415
QIANKUN-1               
1 57422U 23103B   26128.89531537  .00190415  18100-4  22398-3 0  9990
2 57422  96.1668 176.4485 0029201 122.2869 238.1252 16.07715963160989
FENGYUN 3F              
1 57490U 23111A   26129.14774365  .00000034  00000+0  36494-4 0  9996
2 57490  98.6851 199.8806 0001155 115.7210 244.4086 14.19932210143327
HJ-2F                   
1 57519U 23116A   26129.13469394  .00005971  00000+0  26602-3 0  9999
2 57519  97.3860 135.0508 0009115 166.4673 193.6809 15.21774853152819
XRISM                   
1 57800U 23137A   26129.05106359  .00004168  00000+0  23028-3 0  9991
2 57800  31.0019 253.0421 0007696 289.4104  70.5703 15.12142090146939
METEOR-M2 4             
1 59051U 24039A   26129.21389543  .00000015  00000+0  26393-4 0  9995
2 59051  98.6988  89.0077 0005956 286.1164  73.9358 14.22425498113724
GRBBETA                 
1 60237U 24128C   26129.19120141  .00002946  00000+0  20948-3 0  9990
2 60237  61.9913 353.0501 0045729 126.5070 234.0248 15.06321555100393
TRANSPORTER-11 OBJECT A 
1 60468U 24149A   26129.17407838  .00007193  00000+0  23323-3 0  9997
2 60468  97.3728 209.2449 0003407  29.5116 330.6318 15.32282424 96080
WARATAH SEED-1          
1 60469U 24149B   26129.20407058  .00010240  00000+0  30405-3 0  9992
2 60469  97.3685 209.7730 0002132  51.0614 309.0819 15.34979478 96134
PHISAT 2                
1 60470U 24149C   26129.21785117  .00006981  00000+0  23923-3 0  9994
2 60470  97.3749 208.6681 0002533  62.3691 297.7806 15.30508490 96031
