OBJECT_NAME,OBJECT_ID,EPOCH,MEAN_MOTION,ECCENTRICITY,INCLINATION,RA_OF_ASC_NODE,ARG_OF_PERICENTER,MEAN_ANOMALY,EPHEMERIS_TYPE,CLASSIFICATION_TYPE,NORAD_CAT_ID,ELEMENT_SET_NO,REV_AT_EPOCH,BSTAR,MEAN_MOTION_DOT,MEAN_MOTION_DDOT
CUBESX-HSE 3 (RS42S),2023-091N,2026-05-09T03:31:00.092640,15.30240667,.0010088,97.5109,194.2676,223.4796,136.5650,0,U,57178,999,15845,.3435E-3,.9989E-4,0
MONITOR-3 (RS58S),2023-091Q,2026-05-09T03:40:29.995680,15.27064584,.0010741,97.5102,192.3328,231.4695,128.5582,0,U,57180,999,15833,.2995E-3,.789E-4,0
MONITOR-4 (RS57S),2023-091S,2026-05-09T04:48:11.733120,15.27162433,.0010694,97.5096,192.3488,231.5984,128.4295,0,U,57182,999,15834,.31059E-3,.821E-4,0
MONITOR-2 (RS39S),2023-091U,2026-05-09T02:38:08.519712,15.18550876,.0009827,97.5096,187.6507,244.4906,115.5312,0,U,57184,999,15802,.20689E-3,.4209E-4,0
SVYATOBOR 1 (RS60S),2023-091X,2026-05-09T04:20:49.632000,15.25955047,.000861,97.5108,192.7988,221.3746,138.6841,0,U,57187,999,15836,.28431E-3,.7234E-4,0
HORS 1,2023-091Y,2026-05-09T04:03:40.176000,15.26049011,.0008087,97.5086,192.5544,220.8295,139.2338,0,U,57188,999,15836,.28386E-3,.7242E-4,0
VIZARD-METEO (RS38S),2023-091Z,2026-05-09T04:10:25.474080,15.34801336,.0007301,97.5104,197.9132,197.9855,162.1131,0,U,57189,999,15870,.38921E-3,.13068E-3,0
SITRO-AIS 6 (CHIRKIN),2023-091AC,2026-05-09T03:39:00.512064,15.25222549,.0010602,97.5087,192.0248,238.4643,121.5560,0,U,57192,999,15833,.18778E-3,.4649E-4,0
SITRO-AIS 8 (ANOKHIN),2023-091AD,2026-05-09T03:32:40.308000,15.31094440,.000972,97.5073,194.1349,229.5526,130.4868,0,U,57193,999,15847,.34791E-3,.10389E-3,0
SITRO-AIS 7 (FARTUSHNIY),2023-091AE,2026-05-09T03:32:23.941248,15.24930806,.0010408,97.5085,191.8647,239.6232,120.3977,0,U,57194,999,15832,.22396E-3,.5511E-4,0
AVION KALUGA 650,2023-091AF,2026-05-09T04:38:14.502624,15.19941010,.0009056,97.5112,188.9348,241.3891,118.6434,0,U,57195,999,15810,.20154E-3,.4267E-4,0
HORS 2,2023-091AG,2026-05-09T03:41:50.569728,15.30910639,.0007686,97.5104,195.6793,211.3756,148.7027,0,U,57196,999,15855,.34577E-3,.1026E-3,0
A-SEANSAT-PG1,2023-091AH,2026-05-09T04:33:22.351392,15.35625182,.00071,97.5094,197.9786,206.4789,153.6093,0,U,57197,999,15872,.41701E-3,.14382E-3,0
SITRO-AIS 10 (BURDAEV),2023-091AK,2026-05-09T03:25:29.777664,15.37159842,.0006675,97.5094,198.7954,199.3863,160.7128,0,U,57199,999,15876,.45086E-3,.16345E-3,0
SITRO-AIS 9 (SHCHUKIN),2023-091AM,2026-05-09T03:46:28.924608,15.36708006,.0006894,97.5092,198.5696,199.9378,160.1597,0,U,57201,999,15875,.44675E-3,.15961E-3,0
UTMN 2 (RS27S),2023-091AP,2026-05-09T04:27:38.272032,15.31103271,.0007679,97.5103,195.8929,206.5833,153.5015,0,U,57203,999,15857,.34883E-3,.10414E-3,0
SITRO-AIS 12 (SMIRENNIY),2023-091AQ,2026-05-09T03:43:27.584832,15.36990760,.0006687,97.5105,199.0106,193.7193,166.3871,0,U,57204,999,15877,.44989E-3,.16221E-3,0
SITRO-AIS 11 (SHEFFER),2023-091AU,2026-05-09T04:17:37.879296,15.37382217,.0006615,97.5102,199.2579,193.2138,166.8934,0,U,57208,999,15879,.43067E-3,.15721E-3,0
H2SAT (HEINRICH HERTZ),2023-093A,2026-05-09T03:09:38.804832,1.00269896,.0001026,0.0174,236.9798,255.4900,142.5968,0,U,57213,999,1052,0,.1E-6,0
KUZGTU 1 (RS47S),2023-091AV,2026-05-09T04:04:27.224256,15.28976382,.0010142,97.5082,193.2764,227.4879,132.5505,0,U,57217,999,15841,.33982E-3,.9502E-4,0
QIANKUN-1,2023-103B,2026-05-08T21:29:15.247968,16.07715963,.0029201,96.1668,176.4485,122.2869,238.1252,0,U,57422,999,16098,.22398E-3,.190415E-2,.181E-4
FENGYUN 3F,2023-111A,2026-05-09T03:32:45.051360,14.19932210,.0001155,98.6851,199.8806,115.7210,244.4086,0,U,57490,999,14332,.36494E-4,.34E-6,0
HJ-2F,2023-116A,2026-05-09T03:13:57.556416,15.21774853,.0009115,97.3860,135.0508,166.4673,193.6809,0,U,57519,999,15281,.26602E-3,.5971E-4,0
XRISM,2023-137A,2026-05-09T01:13:31.894176,15.12142090,.0007696,31.0019,253.0421,289.4104,70.5703,0,U,57800,999,14693,.23028E-3,.4168E-4,0
METEOR-M2 4,2024-039A,2026-05-09T05:08:00.565152,14.22425498,.0005956,98.6988,89.0077,286.1164,73.9358,0,U,59051,999,11372,.26393E-4,.15E-6,0
GRBBETA,2024-128C,2026-05-09T04:35:19.801824,15.06321555,.0045729,61.9913,353.0501,126.5070,234.0248,0,U,60237,999,10039,.20948E-3,.2946E-4,0
TRANSPORTER-11 OBJECT A,2024-149A,2026-05-09T04:10:40.372032,15.32282424,.0003407,97.3728,209.2449,29.5116,330.6318,0,U,60468,999,9608,.23323E-3,.7193E-4,0
WARATAH SEED-1,2024-149B,2026-05-09T04:53:51.698112,15.34979478,.0002132,97.3685,209.7730,51.0614,309.0819,0,U,60469,999,9613,.30405E-3,.1024E-3,0
PHISAT 2,2024-149C,2026-05-09T05:13:42.341088,15.30508490,.0002533,97.3749,208.6681,62.3691,297.7806,0,U,60470,999,9603,.23923E-3,.6981E-4,0
